[{"OBJECT_NAME":"FLOCK 4BE-5","OBJECT_ID":"2024-149CV","EPOCH":"2026-03-09T19:00:42.820992","MEAN_MOTION":15.37018054,"ECCENTRICITY":0.00024657,"INCLINATION":97.3875,"RA_OF_ASC_NODE":152.0562,"ARG_OF_PERICENTER":289.8517,"MEAN_ANOMALY":70.2462,"EPHEMERIS_TYPE":0,"CLASSIFICATION_TYPE":"U","NORAD_CAT_ID":60559,"ELEMENT_SET_NO":999,"REV_AT_EPOCH":8699,"BSTAR":0.00059534113,"MEAN_MOTION_DOT":0.00021514,"MEAN_MOTION_DDOT":0},{"OBJECT_NAME":"FLOCK 4BE-3","OBJECT_ID":"2024-149CX","EPOCH":"2026-03-09T15:57:02.546784","MEAN_MOTION":15.38204451,"ECCENTRICITY":0.00032608,"INCLINATION":97.3738,"RA_OF_ASC_NODE":151.8519,"ARG_OF_PERICENTER":277.479,"MEAN_ANOMALY":82.6085,"EPHEMERIS_TYPE":0,"CLASSIFICATION_TYPE":"U","NORAD_CAT_ID":60561,"ELEMENT_SET_NO":999,"REV_AT_EPOCH":8702,"BSTAR":0.00050446891,"MEAN_MOTION_DOT":0.00018927,"MEAN_MOTION_DDOT":0}]
