FLOCK 4BE-5             
1 60559U 24149CV  26068.79216228  .00021514  00000+0  59534-3 0  9995
2 60559  97.3875 152.0562 0002466 289.8517  70.2462 15.37018054 86992
FLOCK 4BE-3             
1 60561U 24149CX  26068.66461280  .00018927  00000+0  50447-3 0  9992
2 60561  97.3738 151.8519 0003261 277.4790  82.6085 15.38204451 87024
